[{"OBJECT_NAME":"ONEWEB-0323","OBJECT_ID":"2021-075AH","EPOCH":"2025-12-21T15:17:07.609632","MEAN_MOTION":13.12429963,"ECCENTRICITY":0.0001902,"INCLINATION":87.8933,"RA_OF_ASC_NODE":25.9115,"ARG_OF_PERICENTER":116.5216,"MEAN_ANOMALY":243.6108,"EPHEMERIS_TYPE":0,"CLASSIFICATION_TYPE":"U","NORAD_CAT_ID":49106,"ELEMENT_SET_NO":999,"REV_AT_EPOCH":21126,"BSTAR":8.6493e-5,"MEAN_MOTION_DOT":4.4e-7,"MEAN_MOTION_DDOT":0},{"OBJECT_NAME":"ONEWEB-0329","OBJECT_ID":"2021-075AJ","EPOCH":"2025-12-22T02:22:08.200128","MEAN_MOTION":13.17648095,"ECCENTRICITY":0.00016936,"INCLINATION":87.9097,"RA_OF_ASC_NODE":41.0845,"ARG_OF_PERICENTER":102.7651,"MEAN_ANOMALY":257.367,"EPHEMERIS_TYPE":0,"CLASSIFICATION_TYPE":"U","NORAD_CAT_ID":49107,"ELEMENT_SET_NO":999,"REV_AT_EPOCH":21026,"BSTAR":0.00012306035,"MEAN_MOTION_DOT":6.1e-7,"MEAN_MOTION_DDOT":0},{"OBJECT_NAME":"ONEWEB-0330","OBJECT_ID":"2021-075AK","EPOCH":"2025-12-22T02:23:18.852000","MEAN_MOTION":13.17650249,"ECCENTRICITY":0.00015264,"INCLINATION":87.9099,"RA_OF_ASC_NODE":41.09,"ARG_OF_PERICENTER":99.9533,"MEAN_ANOMALY":260.1771,"EPHEMERIS_TYPE":0,"CLASSIFICATION_TYPE":"U","NORAD_CAT_ID":49108,"ELEMENT_SET_NO":999,"REV_AT_EPOCH":21030,"BSTAR":1.4141952e-5,"MEAN_MOTION_DOT":1.8e-7,"MEAN_MOTION_DDOT":0},{"OBJECT_NAME":"ONEWEB-0292","OBJECT_ID":"2021-083A","EPOCH":"2025-12-21T21:36:24.518592","MEAN_MOTION":13.13471406,"ECCENTRICITY":0.00018036,"INCLINATION":87.8968,"RA_OF_ASC_NODE":355.4939,"ARG_OF_PERICENTER":95.0681,"MEAN_ANOMALY":265.0654,"EPHEMERIS_TYPE":0,"CLASSIFICATION_TYPE":"U","NORAD_CAT_ID":49186,"ELEMENT_SET_NO":999,"REV_AT_EPOCH":20765,"BSTAR":-0.00018414193,"MEAN_MOTION_DOT":-5.4e-7,"MEAN_MOTION_DDOT":0},{"OBJECT_NAME":"ONEWEB-0303","OBJECT_ID":"2021-083B","EPOCH":"2025-12-21T18:04:21.146592","MEAN_MOTION":13.18686801,"ECCENTRICITY":0.00018282,"INCLINATION":87.9176,"RA_OF_ASC_NODE":10.6936,"ARG_OF_PERICENTER":97.5636,"MEAN_ANOMALY":262.5704,"EPHEMERIS_TYPE":0,"CLASSIFICATION_TYPE":"U","NORAD_CAT_ID":49187,"ELEMENT_SET_NO":999,"REV_AT_EPOCH":20659,"BSTAR":-5.4316663e-5,"MEAN_MOTION_DOT":-9.0e-8,"MEAN_MOTION_DDOT":0},{"OBJECT_NAME":"ONEWEB-0306","OBJECT_ID":"2021-083C","EPOCH":"2025-12-21T23:17:52.980576","MEAN_MOTION":13.18686975,"ECCENTRICITY":0.0001716,"INCLINATION":87.9175,"RA_OF_ASC_NODE":10.6343,"ARG_OF_PERICENTER":85.9377,"MEAN_ANOMALY":274.1951,"EPHEMERIS_TYPE":0,"CLASSIFICATION_TYPE":"U","NORAD_CAT_ID":49188,"ELEMENT_SET_NO":999,"REV_AT_EPOCH":20666,"BSTAR":-9.5429e-5,"MEAN_MOTION_DOT":-2.5e-7,"MEAN_MOTION_DDOT":0},{"OBJECT_NAME":"ONEWEB-0307","OBJECT_ID":"2021-083D","EPOCH":"2025-12-21T23:17:35.299680","MEAN_MOTION":13.1347112,"ECCENTRICITY":0.000177,"INCLINATION":87.8965,"RA_OF_ASC_NODE":355.471,"ARG_OF_PERICENTER":89.5525,"MEAN_ANOMALY":270.5807,"EPHEMERIS_TYPE":0,"CLASSIFICATION_TYPE":"U","NORAD_CAT_ID":49189,"ELEMENT_SET_NO":999,"REV_AT_EPOCH":20766,"BSTAR":-0.00021800555,"MEAN_MOTION_DOT":-6.7e-7,"MEAN_MOTION_DDOT":0},{"OBJECT_NAME":"ONEWEB-0320","OBJECT_ID":"2021-083E","EPOCH":"2025-12-21T18:00:47.486304","MEAN_MOTION":13.1868697,"ECCENTRICITY":0.00017471,"INCLINATION":87.9169,"RA_OF_ASC_NODE":10.7073,"ARG_OF_PERICENTER":92.0725,"MEAN_ANOMALY":268.0607,"EPHEMERIS_TYPE":0,"CLASSIFICATION_TYPE":"U","NORAD_CAT_ID":49190,"ELEMENT_SET_NO":999,"REV_AT_EPOCH":20659,"BSTAR":1.8245731e-5,"MEAN_MOTION_DOT":2.0e-7,"MEAN_MOTION_DDOT":0},{"OBJECT_NAME":"ONEWEB-0321","OBJECT_ID":"2021-083F","EPOCH":"2025-12-22T05:35:38.002272","MEAN_MOTION":13.20771803,"ECCENTRICITY":0.00018506,"INCLINATION":87.9217,"RA_OF_ASC_NODE":309.726,"ARG_OF_PERICENTER":70.7664,"MEAN_ANOMALY":289.367,"EPHEMERIS_TYPE":0,"CLASSIFICATION_TYPE":"U","NORAD_CAT_ID":49191,"ELEMENT_SET_NO":999,"REV_AT_EPOCH":21347,"BSTAR":0.00018685836,"MEAN_MOTION_DOT":8.9e-7,"MEAN_MOTION_DDOT":0},{"OBJECT_NAME":"ONEWEB-0322","OBJECT_ID":"2021-083G","EPOCH":"2025-12-22T06:30:15.747840","MEAN_MOTION":13.13472134,"ECCENTRICITY":0.00019546,"INCLINATION":87.8968,"RA_OF_ASC_NODE":355.4136,"ARG_OF_PERICENTER":74.9196,"MEAN_ANOMALY":285.215,"EPHEMERIS_TYPE":0,"CLASSIFICATION_TYPE":"U","NORAD_CAT_ID":49192,"ELEMENT_SET_NO":999,"REV_AT_EPOCH":20769,"BSTAR":-0.00052438292,"MEAN_MOTION_DOT":-1.79e-6,"MEAN_MOTION_DDOT":0},{"OBJECT_NAME":"ONEWEB-0324","OBJECT_ID":"2021-083H","EPOCH":"2025-12-22T02:46:54.225696","MEAN_MOTION":13.18687101,"ECCENTRICITY":0.0001614,"INCLINATION":87.9175,"RA_OF_ASC_NODE":10.6125,"ARG_OF_PERICENTER":93.2112,"MEAN_ANOMALY":266.9205,"EPHEMERIS_TYPE":0,"CLASSIFICATION_TYPE":"U","NORAD_CAT_ID":49193,"ELEMENT_SET_NO":999,"REV_AT_EPOCH":20666,"BSTAR":-0.00015471457,"MEAN_MOTION_DOT":-4.8e-7,"MEAN_MOTION_DDOT":0},{"OBJECT_NAME":"ONEWEB-0325","OBJECT_ID":"2021-083J","EPOCH":"2025-12-22T02:51:39.007872","MEAN_MOTION":13.18687599,"ECCENTRICITY":0.00018185,"INCLINATION":87.9176,"RA_OF_ASC_NODE":10.6308,"ARG_OF_PERICENTER":91.1272,"MEAN_ANOMALY":269.0068,"EPHEMERIS_TYPE":0,"CLASSIFICATION_TYPE":"U","NORAD_CAT_ID":49194,"ELEMENT_SET_NO":999,"REV_AT_EPOCH":20667,"BSTAR":0.00015266021,"MEAN_MOTION_DOT":7.3e-7,"MEAN_MOTION_DDOT":0},{"OBJECT_NAME":"ONEWEB-0326","OBJECT_ID":"2021-083K","EPOCH":"2025-12-22T06:51:45.741312","MEAN_MOTION":13.18687056,"ECCENTRICITY":0.00020079,"INCLINATION":87.9175,"RA_OF_ASC_NODE":10.5847,"ARG_OF_PERICENTER":99.3619,"MEAN_ANOMALY":260.774,"EPHEMERIS_TYPE":0,"CLASSIFICATION_TYPE":"U","NORAD_CAT_ID":49195,"ELEMENT_SET_NO":999,"REV_AT_EPOCH":20668,"BSTAR":0.0002309906,"MEAN_MOTION_DOT":1.04e-6,"MEAN_MOTION_DDOT":0},{"OBJECT_NAME":"ONEWEB-0327","OBJECT_ID":"2021-083L","EPOCH":"2025-12-22T06:51:21.285792","MEAN_MOTION":13.18686958,"ECCENTRICITY":0.00021293,"INCLINATION":87.9165,"RA_OF_ASC_NODE":10.6034,"ARG_OF_PERICENTER":98.261,"MEAN_ANOMALY":261.8763,"EPHEMERIS_TYPE":0,"CLASSIFICATION_TYPE":"U","NORAD_CAT_ID":49196,"ELEMENT_SET_NO":999,"REV_AT_EPOCH":20670,"BSTAR":8.2917464e-5,"MEAN_MOTION_DOT":4.6e-7,"MEAN_MOTION_DDOT":0},{"OBJECT_NAME":"ONEWEB-0328","OBJECT_ID":"2021-083M","EPOCH":"2025-12-22T06:15:37.864224","MEAN_MOTION":13.13469641,"ECCENTRICITY":0.00015909,"INCLINATION":87.8973,"RA_OF_ASC_NODE":355.3641,"ARG_OF_PERICENTER":90.3643,"MEAN_ANOMALY":269.7668,"EPHEMERIS_TYPE":0,"CLASSIFICATION_TYPE":"U","NORAD_CAT_ID":49197,"ELEMENT_SET_NO":999,"REV_AT_EPOCH":20767,"BSTAR":-0.0014134566,"MEAN_MOTION_DOT":-5.03e-6,"MEAN_MOTION_DDOT":0},{"OBJECT_NAME":"ONEWEB-0331","OBJECT_ID":"2021-083N","EPOCH":"2025-12-21T14:18:41.697216","MEAN_MOTION":13.18686093,"ECCENTRICITY":0.0001759,"INCLINATION":87.9175,"RA_OF_ASC_NODE":10.7148,"ARG_OF_PERICENTER":104.7475,"MEAN_ANOMALY":255.3852,"EPHEMERIS_TYPE":0,"CLASSIFICATION_TYPE":"U","NORAD_CAT_ID":49198,"ELEMENT_SET_NO":999,"REV_AT_EPOCH":20660,"BSTAR":5.1878e-6,"MEAN_MOTION_DOT":1.5e-7,"MEAN_MOTION_DDOT":0},{"OBJECT_NAME":"ONEWEB-0333","OBJECT_ID":"2021-083P","EPOCH":"2025-12-22T06:08:19.353120","MEAN_MOTION":13.1346894,"ECCENTRICITY":0.00018525,"INCLINATION":87.8967,"RA_OF_ASC_NODE":355.4172,"ARG_OF_PERICENTER":89.1582,"MEAN_ANOMALY":270.9759,"EPHEMERIS_TYPE":0,"CLASSIFICATION_TYPE":"U","NORAD_CAT_ID":49199,"ELEMENT_SET_NO":999,"REV_AT_EPOCH":20768,"BSTAR":-0.0010545073,"MEAN_MOTION_DOT":-3.72e-6,"MEAN_MOTION_DDOT":0}]
