ONEWEB-0323             
1 49106U 21075AH  25355.63689363  .00000044  00000+0  86493-4 0  9990
2 49106  87.8933  25.9115 0001902 116.5216 243.6108 13.12429963211263
ONEWEB-0329             
1 49107U 21075AJ  25356.09870602  .00000061  00000+0  12306-3 0  9990
2 49107  87.9097  41.0845 0001693 102.7651 257.3670 13.17648095210261
ONEWEB-0330             
1 49108U 21075AK  25356.09952375  .00000018  00000+0  14142-4 0  9992
2 49108  87.9099  41.0900 0001526  99.9533 260.1771 13.17650249210300
ONEWEB-0292             
1 49186U 21083A   25355.90028378 -.00000054  00000+0 -18414-3 0  9990
2 49186  87.8968 355.4939 0001803  95.0681 265.0654 13.13471406207653
ONEWEB-0303             
1 49187U 21083B   25355.75302253 -.00000009  00000+0 -54317-4 0  9994
2 49187  87.9176  10.6936 0001828  97.5636 262.5704 13.18686801206599
ONEWEB-0306             
1 49188U 21083C   25355.97075209 -.00000025  00000+0 -95429-4 0  9994
2 49188  87.9175  10.6343 0001716  85.9377 274.1951 13.18686975206663
ONEWEB-0307             
1 49189U 21083D   25355.97054745 -.00000067  00000+0 -21801-3 0  9995
2 49189  87.8965 355.4710 0001770  89.5525 270.5807 13.13471120207663
ONEWEB-0320             
1 49190U 21083E   25355.75054961  .00000020  00000+0  18246-4 0  9990
2 49190  87.9169  10.7073 0001747  92.0725 268.0607 13.18686970206597
ONEWEB-0321             
1 49191U 21083F   25356.23307873  .00000089  00000+0  18686-3 0  9990
2 49191  87.9217 309.7260 0001850  70.7664 289.3670 13.20771803213475
ONEWEB-0322             
1 49192U 21083G   25356.27101560 -.00000179  00000+0 -52438-3 0  9995
2 49192  87.8968 355.4136 0001954  74.9196 285.2150 13.13472134207691
ONEWEB-0324             
1 49193U 21083H   25356.11590539 -.00000048  00000+0 -15471-3 0  9998
2 49193  87.9175  10.6125 0001614  93.2112 266.9205 13.18687101206666
ONEWEB-0325             
1 49194U 21083J   25356.11920148  .00000073  00000+0  15266-3 0  9990
2 49194  87.9176  10.6308 0001818  91.1272 269.0068 13.18687599206674
ONEWEB-0326             
1 49195U 21083K   25356.28594608  .00000104  00000+0  23099-3 0  9995
2 49195  87.9175  10.5847 0002007  99.3619 260.7740 13.18687056206681
ONEWEB-0327             
1 49196U 21083L   25356.28566303  .00000046  00000+0  82917-4 0  9997
2 49196  87.9165  10.6034 0002129  98.2610 261.8763 13.18686958206704
ONEWEB-0328             
1 49197U 21083M   25356.26085491 -.00000503  00000+0 -14135-2 0  9995
2 49197  87.8973 355.3641 0001590  90.3643 269.7668 13.13469641207675
ONEWEB-0331             
1 49198U 21083N   25355.59631594  .00000015  00000+0  51878-5 0  9996
2 49198  87.9175  10.7148 0001759 104.7475 255.3852 13.18686093206600
ONEWEB-0333             
1 49199U 21083P   25356.25577955 -.00000372  00000+0 -10545-2 0  9992
2 49199  87.8967 355.4172 0001852  89.1582 270.9759 13.13468940207686
